[
    {
        "Altitude(m)": 703949.8825548614,
        "Argument of Periapsis(deg)": 0.011390121186627068,
        "Eccentricity": 0.0,
        "Inclination(deg)": 45.0,
        "Latitude(deg)": -3.4859726790105365,
        "Longitude(deg)": -134.2474528991274,
        "Mean Anomaly(deg)": -4.830383352519213,
        "RAAN(deg)": 329.98924805854176,
        "Satellite Name": "Constellation 1 1473",
        "Satellite Number": 1473,
        "Semi-Major Axis(m)": 7083131.272910544,
        "Time(s)": 190
    },
    {
        "Altitude(m)": 703942.6480213207,
        "Argument of Periapsis(deg)": 0.011450069192872472,
        "Eccentricity": 0.0,
        "Inclination(deg)": 45.0,
        "Latitude(deg)": -3.4428427974809956,
        "Longitude(deg)": -134.20855381850217,
        "Mean Anomaly(deg)": -4.769682212269378,
        "RAAN(deg)": 329.9891914693762,
        "Satellite Name": "Constellation 1 1473",
        "Satellite Number": 1473,
        "Semi-Major Axis(m)": 7083131.272910544,
        "Time(s)": 191
    },
    {
        "Altitude(m)": 703935.4333369948,
        "Argument of Periapsis(deg)": 0.01151001719911788,
        "Eccentricity": 0.0,
        "Inclination(deg)": 45.0,
        "Latitude(deg)": -3.3997108525118556,
        "Longitude(deg)": -134.1696585280381,
        "Mean Anomaly(deg)": -4.708981072019441,
        "RAAN(deg)": 329.98913488021066,
        "Satellite Name": "Constellation 1 1473",
        "Satellite Number": 1473,
        "Semi-Major Axis(m)": 7083131.272910544,
        "Time(s)": 192
    },
    {
        "Altitude(m)": 703928.2385156471,
        "Argument of Periapsis(deg)": 0.011569965205363285,
        "Eccentricity": 0.0,
        "Inclination(deg)": 45.0,
        "Latitude(deg)": -3.3565768692995013,
        "Longitude(deg)": -134.1307671472261,
        "Mean Anomaly(deg)": -4.648279931769452,
        "RAAN(deg)": 329.9890782910451,
        "Satellite Name": "Constellation 1 1473",
        "Satellite Number": 1473,
        "Semi-Major Axis(m)": 7083131.272910544,
        "Time(s)": 193
    },
    {
        "Altitude(m)": 703921.0635709292,
        "Argument of Periapsis(deg)": 0.01162991321160869,
        "Eccentricity": 0.0,
        "Inclination(deg)": 45.0,
        "Latitude(deg)": -3.3134408730341938,
        "Longitude(deg)": -134.0918792912741,
        "Mean Anomaly(deg)": -4.587578791519617,
        "RAAN(deg)": 329.98902170187955,
        "Satellite Name": "Constellation 1 1473",
        "Satellite Number": 1473,
        "Semi-Major Axis(m)": 7083131.272910544,
        "Time(s)": 194
    },
    {
        "Altitude(m)": 703913.908516433,
        "Argument of Periapsis(deg)": 0.011689861217854095,
        "Eccentricity": 0.0,
        "Inclination(deg)": 45.0,
        "Latitude(deg)": -3.270302888898523,
        "Longitude(deg)": -134.0529950796889,
        "Mean Anomaly(deg)": -4.52687765126973,
        "RAAN(deg)": 329.9889651127139,
        "Satellite Name": "Constellation 1 1473",
        "Satellite Number": 1473,
        "Semi-Major Axis(m)": 7083131.272910544,
        "Time(s)": 195
    },
    {
        "Altitude(m)": 703906.7733656341,
        "Argument of Periapsis(deg)": 0.0117498092240995,
        "Eccentricity": 0.0,
        "Inclination(deg)": 45.0,
        "Latitude(deg)": -3.2271629420687655,
        "Longitude(deg)": -134.0141144638883,
        "Mean Anomaly(deg)": -4.466176511019793,
        "RAAN(deg)": 329.98890852354833,
        "Satellite Name": "Constellation 1 1473",
        "Satellite Number": 1473,
        "Semi-Major Axis(m)": 7083131.272910544,
        "Time(s)": 196
    },
    {
        "Altitude(m)": 703899.6581319225,
        "Argument of Periapsis(deg)": 0.011809757230344905,
        "Eccentricity": 0.0,
        "Inclination(deg)": 45.0,
        "Latitude(deg)": -3.1840210577147308,
        "Longitude(deg)": -133.97523739529774,
        "Mean Anomaly(deg)": -4.405475370769906,
        "RAAN(deg)": 329.9888519343828,
        "Satellite Name": "Constellation 1 1473",
        "Satellite Number": 1473,
        "Semi-Major Axis(m)": 7083131.272910544,
        "Time(s)": 197
    },
    {
        "Altitude(m)": 703892.5628286038,
        "Argument of Periapsis(deg)": 0.011869705236590313,
        "Eccentricity": 0.0,
        "Inclination(deg)": 45.0,
        "Latitude(deg)": -3.140877260999557,
        "Longitude(deg)": -133.9363638253504,
        "Mean Anomaly(deg)": -4.344774230520071,
        "RAAN(deg)": 329.9887953452172,
        "Satellite Name": "Constellation 1 1473",
        "Satellite Number": 1473,
        "Semi-Major Axis(m)": 7083131.272910544,
        "Time(s)": 198
    },
    {
        "Altitude(m)": 703885.487468884,
        "Argument of Periapsis(deg)": 0.011929653242835719,
        "Eccentricity": 0.0,
        "Inclination(deg)": 45.0,
        "Latitude(deg)": -3.0977315770799914,
        "Longitude(deg)": -133.897493705487,
        "Mean Anomaly(deg)": -4.284073090270134,
        "RAAN(deg)": 329.9887387560517,
        "Satellite Name": "Constellation 1 1473",
        "Satellite Number": 1473,
        "Semi-Major Axis(m)": 7083131.272910544,
        "Time(s)": 199
    }
]